IRIDIUM 136             
1 42962U 17061H   23266.56373869  .00000172  00000+0  54221-4 0  9991
2 42962  86.3914  82.1763 0002329  89.4542 270.6921 14.34218464311842
